{"type": "FeatureCollection", "features": [ {"type": "Feature", "properties": {"norad_id": 43262, "name": "GAOFEN-1 04", "group": "resource", "lat": -14.618213685102363, "lon": 36.32946504187763, "alt_km": 645.1501709540744, "timestamp": "2025-12-02T08:59:32.377237+00:00", "meta": {"OBJECT_NAME": "GAOFEN-1 04", "OBJECT_ID": "2018-031D", "EPOCH": "2025-12-02T04:10:45.912000", "MEAN_MOTION": 14.76413044, "ECCENTRICITY": 0.0001391, "INCLINATION": 98.0823, "RA_OF_ASC_NODE": 34.0048, "ARG_OF_PERICENTER": 63.1299, "MEAN_ANOMALY": 297.0052, "EPHEMERIS_TYPE": 0, "CLASSIFICATION_TYPE": "U", "NORAD_CAT_ID": 43262, "ELEMENT_SET_NO": 999, "REV_AT_EPOCH": 41361, "BSTAR": 0.00017636, "MEAN_MOTION_DOT": 1.174e-05, "MEAN_MOTION_DDOT": 0}, "tle": {"line1": "1 43262U 18031D   25336.17414250  .00001174  00000+0  17636-3 0  9991", "line2": "2 43262  98.0823  34.0048 0001391  63.1299 297.0052 14.76413044413616"}}, "geometry": {"type": "Point", "coordinates": [36.32946504187763, -14.618213685102363]}}, {"type": "Feature", "properties": {"norad_id": 43437, "name": "SENTINEL-3B", "group": "resource", "lat": -23.128506396731634, "lon": -142.01051113529226, "alt_km": 808.0720342806826, "timestamp": "2025-12-02T08:59:32.377258+00:00", "meta": {"OBJECT_NAME": "SENTINEL-3B", "OBJECT_ID": "2018-039A", "EPOCH": "2025-12-02T04:40:34.740192", "MEAN_MOTION": 14.2673608, "ECCENTRICITY": 0.0001466, "INCLINATION": 98.6281, "RA_OF_ASC_NODE": 41.5306, "ARG_OF_PERICENTER": 112.8551, "MEAN_ANOMALY": 247.2785, "EPHEMERIS_TYPE": 0, "CLASSIFICATION_TYPE": "U", "NORAD_CAT_ID": 43437, "ELEMENT_SET_NO": 999, "REV_AT_EPOCH": 39603, "BSTAR": 9.3085e-05, "MEAN_MOTION_DOT": 1.82e-06, "MEAN_MOTION_DDOT": 0}, "tle": {"line1": "1 43437U 18039A   25336.19484653  .00000182  00000+0  93085-4 0  9990", "line2": "2 43437  98.6281  41.5306 0001466 112.8551 247.2785 14.26736080396039"}}, "geometry": {"type": "Point", "coordinates": [-142.01051113529226, -23.128506396731634]}}, {"type": "Feature", "properties": {"norad_id": 43461, "name": "GAOFEN-5 01", "group": "resource", "lat": 17.85475242158805, "lon": -63.57651565096789, "alt_km": 691.1316406593769, "timestamp": "2025-12-02T08:59:32.377270+00:00", "meta": {"OBJECT_NAME": "GAOFEN-5 01", "OBJECT_ID": "2018-043A", "EPOCH": "2025-12-01T21:23:57.682176", "MEAN_MOTION": 14.60389358, "ECCENTRICITY": 0.000167, "INCLINATION": 98.4311, "RA_OF_ASC_NODE": 298.6706, "ARG_OF_PERICENTER": 14.3292, "MEAN_ANOMALY": 345.7954, "EPHEMERIS_TYPE": 0, "CLASSIFICATION_TYPE": "U", "NORAD_CAT_ID": 43461, "ELEMENT_SET_NO": 999, "REV_AT_EPOCH": 40289, "BSTAR": 0.00013041, "MEAN_MOTION_DOT": 5.82e-06, "MEAN_MOTION_DDOT": 0}, "tle": {"line1": "1 43461U 18043A   25335.89163984  .00000582  00000+0  13041-3 0  9996", "line2": "2 43461  98.4311 298.6706 0001670  14.3292 345.7954 14.60389358402896"}}, "geometry": {"type": "Point", "coordinates": [-63.57651565096789, 17.85475242158805]}}, {"type": "Feature", "properties": {"norad_id": 43484, "name": "GAOFEN-6", "group": "resource", "lat": 46.73798854060611, "lon": -130.6307598604358, "alt_km": 628.8616864357773, "timestamp": "2025-12-02T08:59:32.377281+00:00", "meta": {"OBJECT_NAME": "GAOFEN-6", "OBJECT_ID": "2018-048A", "EPOCH": "2025-12-02T01:53:23.034912", "MEAN_MOTION": 14.76647441, "ECCENTRICITY": 0.0013007, "INCLINATION": 97.8045, "RA_OF_ASC_NODE": 40.7031, "ARG_OF_PERICENTER": 93.3192, "MEAN_ANOMALY": 266.9506, "EPHEMERIS_TYPE": 0, "CLASSIFICATION_TYPE": "U", "NORAD_CAT_ID": 43484, "ELEMENT_SET_NO": 999, "REV_AT_EPOCH": 40430, "BSTAR": 0.00015465, "MEAN_MOTION_DOT": 1.033e-05, "MEAN_MOTION_DDOT": 0}, "tle": {"line1": "1 43484U 18048A   25336.07873883  .00001033  00000+0  15465-3 0  9997", "line2": "2 43484  97.8045  40.7031 0013007  93.3192 266.9506 14.76647441404300"}}, "geometry": {"type": "Point", "coordinates": [-130.6307598604358, 46.73798854060611]}}, {"type": "Feature", "properties": {"norad_id": 43585, "name": "GAOFEN-11 01", "group": "resource", "lat": 58.963865226593924, "lon": -128.545121597406, "alt_km": 416.5147900667407, "timestamp": "2025-12-02T08:59:32.377296+00:00", "meta": {"OBJECT_NAME": "GAOFEN-11 01", "OBJECT_ID": "2018-063A", "EPOCH": "2025-12-02T05:22:26.276736", "MEAN_MOTION": 15.48771033, "ECCENTRICITY": 0.0005072, "INCLINATION": 97.1583, "RA_OF_ASC_NODE": 39.2494, "ARG_OF_PERICENTER": 358.177, "MEAN_ANOMALY": 1.9461, "EPHEMERIS_TYPE": 0, "CLASSIFICATION_TYPE": "U", "NORAD_CAT_ID": 43585, "ELEMENT_SET_NO": 999, "REV_AT_EPOCH": 40979, "BSTAR": 0.00032469, "MEAN_MOTION_DOT": 0.00017361, "MEAN_MOTION_DDOT": 0}, "tle": {"line1": "1 43585U 18063A   25336.22391524  .00017361  00000+0  32469-3 0  9994", "line2": "2 43585  97.1583  39.2494 0005072 358.1770   1.9461 15.48771033409795"}}, "geometry": {"type": "Point", "coordinates": [-128.545121597406, 58.963865226593924]}}, {"type": "Feature", "properties": {"norad_id": 43613, "name": "ICESAT-2", "group": "resource", "lat": -86.72182360392407, "lon": -84.34423700011565, "alt_km": 488.57695709655036, "timestamp": "2025-12-02T08:59:32.377307+00:00", "meta": {"OBJECT_NAME": "ICESAT-2", "OBJECT_ID": "2018-070A", "EPOCH": "2025-12-02T04:39:36.120384", "MEAN_MOTION": 15.28298799, "ECCENTRICITY": 5.85e-05, "INCLINATION": 92.0054, "RA_OF_ASC_NODE": 237.8906, "ARG_OF_PERICENTER": 150.421, "MEAN_ANOMALY": 209.7072, "EPHEMERIS_TYPE": 0, "CLASSIFICATION_TYPE": "U", "NORAD_CAT_ID": 43613, "ELEMENT_SET_NO": 999, "REV_AT_EPOCH": 40237, "BSTAR": 0.00057361, "MEAN_MOTION_DOT": 0.00015816, "MEAN_MOTION_DDOT": 0}, "tle": {"line1": "1 43613U 18070A   25336.19416806  .00015816  00000+0  57361-3 0  9992", "line2": "2 43613  92.0054 237.8906 0000585 150.4210 209.7072 15.28298799402378"}}, "geometry": {"type": "Point", "coordinates": [-84.34423700011565, -86.72182360392407]}}, {"type": "Feature", "properties": {"norad_id": 43719, "name": "HYSIS", "group": "resource", "lat": 81.97650188831338, "lon": -53.020672089182035, "alt_km": 625.1624875527368, "timestamp": "2025-12-02T08:59:32.377317+00:00", "meta": {"OBJECT_NAME": "HYSIS", "OBJECT_ID": "2018-096A", "EPOCH": "2025-12-02T02:05:19.807584", "MEAN_MOTION": 14.78593325, "ECCENTRICITY": 0.0001755, "INCLINATION": 98.0111, "RA_OF_ASC_NODE": 39.1163, "ARG_OF_PERICENTER": 68.8994, "MEAN_ANOMALY": 291.2404, "EPHEMERIS_TYPE": 0, "CLASSIFICATION_TYPE": "U", "NORAD_CAT_ID": 43719, "ELEMENT_SET_NO": 999, "REV_AT_EPOCH": 37829, "BSTAR": 2.1475e-05, "MEAN_MOTION_DOT": 1.05e-06, "MEAN_MOTION_DDOT": 0}, "tle": {"line1": "1 43719U 18096A   25336.08703481  .00000105  00000+0  21475-4 0  9996", "line2": "2 43719  98.0111  39.1163 0001755  68.8994 291.2404 14.78593325378299"}}, "geometry": {"type": "Point", "coordinates": [-53.020672089182035, 81.97650188831338]}}, {"type": "Feature", "properties": {"norad_id": 43783, "name": "KAZSTSAT", "group": "resource", "lat": -80.75029065698104, "lon": 65.52588163954776, "alt_km": 576.6207072031739, "timestamp": "2025-12-02T08:59:32.377328+00:00", "meta": {"OBJECT_NAME": "KAZSTSAT", "OBJECT_ID": "2018-099AB", "EPOCH": "2025-12-02T01:21:35.195904", "MEAN_MOTION": 14.99291992, "ECCENTRICITY": 0.000662, "INCLINATION": 97.4552, "RA_OF_ASC_NODE": 11.7011, "ARG_OF_PERICENTER": 8.824, "MEAN_ANOMALY": 351.3099, "EPHEMERIS_TYPE": 0, "CLASSIFICATION_TYPE": "U", "NORAD_CAT_ID": 43783, "ELEMENT_SET_NO": 999, "REV_AT_EPOCH": 38176, "BSTAR": 0.00020697, "MEAN_MOTION_DOT": 2.472e-05, "MEAN_MOTION_DDOT": 0}, "tle": {"line1": "1 43783U 18099AB  25336.05665736  .00002472  00000+0  20697-3 0  9990", "line2": "2 43783  97.4552  11.7011 0006620   8.8240 351.3099 14.99291992381766"}}, "geometry": {"type": "Point", "coordinates": [65.52588163954776, -80.75029065698104]}}, {"type": "Feature", "properties": {"norad_id": 43831, "name": "SAUDISAT 5A", "group": "resource", "lat": 69.62299384191208, "lon": 16.467851926397355, "alt_km": 476.24357430981763, "timestamp": "2025-12-02T08:59:32.377338+00:00", "meta": {"OBJECT_NAME": "SAUDISAT 5A", "OBJECT_ID": "2018-102A", "EPOCH": "2025-12-02T03:57:35.044416", "MEAN_MOTION": 15.25448853, "ECCENTRICITY": 0.0011768, "INCLINATION": 97.3376, "RA_OF_ASC_NODE": 36.5613, "ARG_OF_PERICENTER": 108.7317, "MEAN_ANOMALY": 251.5199, "EPHEMERIS_TYPE": 0, "CLASSIFICATION_TYPE": "U", "NORAD_CAT_ID": 43831, "ELEMENT_SET_NO": 999, "REV_AT_EPOCH": 38561, "BSTAR": 0.00030608, "MEAN_MOTION_DOT": 7.686e-05, "MEAN_MOTION_DDOT": 0}, "tle": {"line1": "1 43831U 18102A   25336.16498894  .00007686  00000+0  30608-3 0  9995", "line2": "2 43831  97.3376  36.5613 0011768 108.7317 251.5199 15.25448853385610"}}, "geometry": {"type": "Point", "coordinates": [16.467851926397355, 69.62299384191208]}}, {"type": "Feature", "properties": {"norad_id": 43833, "name": "SAUDISAT 5B", "group": "resource", "lat": 68.65523403890867, "lon": -121.23376454184155, "alt_km": 473.16873047865647, "timestamp": "2025-12-02T08:59:32.377349+00:00", "meta": {"OBJECT_NAME": "SAUDISAT 5B", "OBJECT_ID": "2018-102C", "EPOCH": "2025-12-02T05:21:51.746976", "MEAN_MOTION": 15.25807797, "ECCENTRICITY": 0.0012434, "INCLINATION": 97.347, "RA_OF_ASC_NODE": 39.3383, "ARG_OF_PERICENTER": 111.117, "MEAN_ANOMALY": 249.1399, "EPHEMERIS_TYPE": 0, "CLASSIFICATION_TYPE": "U", "NORAD_CAT_ID": 43833, "ELEMENT_SET_NO": 999, "REV_AT_EPOCH": 38573, "BSTAR": 0.00029227, "MEAN_MOTION_DOT": 7.417e-05, "MEAN_MOTION_DDOT": 0}, "tle": {"line1": "1 43833U 18102C   25336.22351559  .00007417  00000+0  29227-3 0  9997", "line2": "2 43833  97.3470  39.3383 0012434 111.1170 249.1399 15.25807797385732"}}, "geometry": {"type": "Point", "coordinates": [-121.23376454184155, 68.65523403890867]}}]}